STARLINK-34658          
1 64802U 25150N   26201.94832583  .00002552  00000+0  22156-3 0  9998
2 64802  70.0005 158.6186 0003069 260.3182  99.7630 14.98337201 56473
STARLINK-34620          
1 64803U 25150P   26201.94849712  .00003794  00000+0  32548-3 0  9996
2 64803  70.0007 158.6181 0003513 263.3959  96.6800 14.98339297 56472
STARLINK-34633          
1 64804U 25150Q   26201.91926962  .00003187  00000+0  27474-3 0  9995
2 64804  70.0010 158.5167 0003689 261.2357  98.8384 14.98337687 56475
STARLINK-34624          
1 64805U 25150R   26201.93999065  .00003818  00000+0  32748-3 0  9993
2 64805  70.0008 158.5929 0002910 263.0452  97.0376 14.98341146 56478
STARLINK-34664          
1 64806U 25150S   26201.88988870  .00003922  00000+0  33622-3 0  9998
2 64806  70.0006 158.4164 0003063 269.3787  90.7021 14.98337329 56472
STARLINK-34663          
1 64807U 25150T   26201.92745946  .00003806  00000+0  32650-3 0  9990
2 64807  70.0012 158.5508 0003296 265.0770  95.0013 14.98339756 56471
STARLINK-34696          
1 64808U 25150U   26201.93163388  .00003903  00000+0  33453-3 0  9996
2 64808  70.0013 158.5624 0003740 262.8020  97.2714 14.98348492 56478
STARLINK-34675          
1 64809U 25150V   26201.91910200  .00016998  00000+0  14268-2 0  9998
2 64809  70.0012 158.5223 0003720 261.3664  98.7074 14.98387578 56472
STARLINK-34608          
1 64810U 25150W   26201.90240777  .00003701  00000+0  31772-3 0  9992
2 64810  70.0010 158.4642 0003584 263.9994  96.0756 14.98340022 56479
STARLINK-34669          
1 64811U 25150X   26201.89823436  .00001861  00000+0  16370-3 0  9992
2 64811  70.0007 158.4431 0003396 260.2213  99.8562 14.98339549 56475
STARLINK-34644          
1 64812U 25150Y   26201.94014081  .00002433  00000+0  21157-3 0  9992
2 64812  70.0008 158.5445 0002860 265.5138  94.5694 14.98334974 56477
STARLINK-34685          
1 64813U 25150Z   26201.28924171  .00002259  00000+0  19701-3 0  9998
2 64813  70.0010 160.3292 0002955 271.5839  88.4981 14.98342548 56378
STARLINK-34668          
1 64814U 25150AA  26201.90674623  .00003467  00000+0  29812-3 0  9998
2 64814  70.0007 158.4706 0003299 265.5278  94.5504 14.98340735 56460
STARLINK-34667          
1 64815U 25150AB  26201.92345212  .00003881  00000+0  33278-3 0  9991
2 64815  70.0012 158.5290 0002988 269.3779  90.7038 14.98341170 56473
KUIPER-00069            
1 64816U 25151A   26201.88296846  .00001960  00000+0  28595-3 0  9998
2 64816  51.9027  51.6636 0000626 104.6620 255.4412 14.79937761 56481
KUIPER-00070            
1 64817U 25151B   26201.95723930  .00002105  00000+0  30486-3 0  9990
2 64817  51.9009  76.2455 0001009 109.1042 251.0030 14.79956620 56155
KUIPER-00071            
1 64818U 25151C   26201.89242407  .00001900  00000+0  27804-3 0  9991
2 64818  51.9014  74.0715 0000749 111.5394 248.5649 14.79947261 54992
KUIPER-00072            
1 64819U 25151D   26201.88021825  .00001936  00000+0  28278-3 0  9995
2 64819  51.8987  54.0676 0000852 105.8934 254.2123 14.79947903 55272
KUIPER-00073            
1 64820U 25151E   26201.92621118  .00002051  00000+0  29796-3 0  9998
2 64820  51.9008  73.9055 0000806 108.8459 251.2591 14.79934841 56188
KUIPER-00074            
1 64821U 25151F   26200.22359862  .00365209  71752-4  52861-3 0  9998
2 64821  51.8723 336.2423 0006386 301.9766  58.0628 16.04703404 56196
KUIPER-00075            
1 64822U 25151G   26201.95044738  .00011172  00000+0  23760-3 0  9999
2 64822  51.8663 291.2294 0004026  26.7120 333.4077 15.45486276 56985
KUIPER-00076            
1 64823U 25151H   26201.80194614  .00001808  00000+0  26603-3 0  9997
2 64823  51.9013  64.4749 0000896 106.0780 254.0281 14.79936108 55126
KUIPER-00077            
1 64824U 25151J   26201.93161815  .00001989  00000+0  28977-3 0  9995
2 64824  51.9028  68.9214 0000728 108.6593 251.4449 14.79937726 55071
KUIPER-00078            
1 64825U 25151K   26201.90054404  .00001931  00000+0  28224-3 0  9990
2 64825  51.9012  66.5351 0000832 111.7624 248.3427 14.79937406 55107
KUIPER-00079            
1 64826U 25151L   26201.92890545  .00002062  00000+0  29937-3 0  9995
2 64826  51.8999  71.3700 0000757 105.6417 254.4629 14.79939670 56233
KUIPER-00080            
1 64827U 25151M   26201.82764437  .00009396  00000+0  12586-2 0  9993
2 64827  51.9008  71.8277 0000726 318.5359  41.5548 14.79974629 55020
KUIPER-00082            
1 64828U 25151N   26201.80733847  .00001701  00000+0  25211-3 0  9995
2 64828  51.9024  59.4716 0000867 109.5555 250.5501 14.79936146 55192
KUIPER-00083            
1 64829U 25151P   26201.93430046  .00000640  00000+0  11298-3 0  9996
2 64829  51.9021  66.3950 0000679 107.5819 252.5217 14.79931240 56297
KUIPER-00084            
1 64830U 25151Q   26201.92350008  .00001185  00000+0  18443-3 0  9990
2 64830  51.9029  76.4267 0000499 106.3708 253.7310 14.79928220 54967
KUIPER-00085            
1 64831U 25151R   26201.90864565  .00001909  00000+0  27935-3 0  9997
2 64831  51.9041  59.0714 0000760 112.8949 247.2094 14.79935539 55202
