OBJECT_NAME,OBJECT_ID,EPOCH,MEAN_MOTION,ECCENTRICITY,INCLINATION,RA_OF_ASC_NODE,ARG_OF_PERICENTER,MEAN_ANOMALY,EPHEMERIS_TYPE,CLASSIFICATION_TYPE,NORAD_CAT_ID,ELEMENT_SET_NO,REV_AT_EPOCH,BSTAR,MEAN_MOTION_DOT,MEAN_MOTION_DDOT
STARLINK-34658,2025-150N,2026-07-20T22:45:35.351712,14.98337201,.00030698,70.0005,158.6186,260.3182,99.7630,0,U,64802,999,5647,.22156254E-3,.2552E-4,0
STARLINK-34620,2025-150P,2026-07-20T22:45:50.151168,14.98339297,.00035133,70.0007,158.6181,263.3959,96.6800,0,U,64803,999,5647,.32547851E-3,.3794E-4,0
STARLINK-34633,2025-150Q,2026-07-20T22:03:44.895168,14.98337687,.00036897,70.0010,158.5167,261.2357,98.8384,0,U,64804,999,5647,.27473679E-3,.3187E-4,0
STARLINK-34624,2025-150R,2026-07-20T22:33:35.192160,14.98341146,.00029101,70.0008,158.5929,263.0452,97.0376,0,U,64805,999,5647,.3274785E-3,.3818E-4,0
STARLINK-34664,2025-150S,2026-07-20T21:21:26.383680,14.98337329,.0003063,70.0006,158.4164,269.3787,90.7021,0,U,64806,999,5647,.33621666E-3,.3922E-4,0
STARLINK-34663,2025-150T,2026-07-20T22:15:32.497344,14.98339756,.00032968,70.0012,158.5508,265.0770,95.0013,0,U,64807,999,5647,.32650083E-3,.3806E-4,0
STARLINK-34696,2025-150U,2026-07-20T22:21:33.167232,14.98348492,.00037403,70.0013,158.5624,262.8020,97.2714,0,U,64808,999,5647,.33452575E-3,.3903E-4,0
STARLINK-34675,2025-150V,2026-07-20T22:03:30.412800,14.98387578,.00037209,70.0012,158.5223,261.3664,98.7074,0,U,64809,999,5647,.14267745E-2,.16998E-3,0
STARLINK-34608,2025-150W,2026-07-20T21:39:28.031328,14.98340022,.00035845,70.0010,158.4642,263.9994,96.0756,0,U,64810,999,5647,.31772041E-3,.3701E-4,0
STARLINK-34669,2025-150X,2026-07-20T21:33:27.448704,14.98339549,.00033969,70.0007,158.4431,260.2213,99.8562,0,U,64811,999,5647,.16369805E-3,.1861E-4,0
STARLINK-34644,2025-150Y,2026-07-20T22:33:48.165984,14.98334974,.00028607,70.0008,158.5445,265.5138,94.5694,0,U,64812,999,5647,.21156669E-3,.2433E-4,0
STARLINK-34685,2025-150Z,2026-07-20T06:56:30.483744,14.98342548,.00029555,70.0010,160.3292,271.5839,88.4981,0,U,64813,999,5637,.19701484E-3,.2259E-4,0
STARLINK-34668,2025-150AA,2026-07-20T21:45:42.874272,14.98340735,.00032991,70.0007,158.4706,265.5278,94.5504,0,U,64814,999,5646,.2981212E-3,.3467E-4,0
STARLINK-34667,2025-150AB,2026-07-20T22:09:46.263168,14.98341170,.0002988,70.0012,158.5290,269.3779,90.7038,0,U,64815,999,5647,.33277848E-3,.3881E-4,0
KUIPER-00069,2025-151A,2026-07-20T21:11:28.474944,14.79937761,.00006265,51.9027,51.6636,104.6620,255.4412,0,U,64816,999,5648,.2859456E-3,.196E-4,0
KUIPER-00070,2025-151B,2026-07-20T22:58:25.475520,14.79956620,.00010094,51.9009,76.2455,109.1042,251.0030,0,U,64817,999,5615,.30486196E-3,.2105E-4,0
KUIPER-00071,2025-151C,2026-07-20T21:25:05.439648,14.79947261,.00007494,51.9014,74.0715,111.5394,248.5649,0,U,64818,999,5499,.27803523E-3,.19E-4,0
KUIPER-00072,2025-151D,2026-07-20T21:07:30.856800,14.79947903,.00008526,51.8987,54.0676,105.8934,254.2123,0,U,64819,999,5527,.28278129E-3,.1936E-4,0
KUIPER-00073,2025-151E,2026-07-20T22:13:44.645952,14.79934841,.00008062,51.9008,73.9055,108.8459,251.2591,0,U,64820,999,5618,.29796459E-3,.2051E-4,0
KUIPER-00074,2025-151F,2026-07-19T05:21:58.920768,16.04703404,.00063863,51.8723,336.2423,301.9766,58.0628,0,U,64821,999,5619,.52861119E-3,.365209E-2,.7175197E-4
KUIPER-00075,2025-151G,2026-07-20T22:48:38.653632,15.45486276,.00040262,51.8663,291.2294,26.7120,333.4077,0,U,64822,999,5698,.23760198E-3,.11172E-3,0
KUIPER-00076,2025-151H,2026-07-20T19:14:48.146496,14.79936108,.0000896,51.9013,64.4749,106.0780,254.0281,0,U,64823,999,5512,.26603238E-3,.1808E-4,0
KUIPER-00077,2025-151J,2026-07-20T22:21:31.808160,14.79937726,.00007285,51.9028,68.9214,108.6593,251.4449,0,U,64824,999,5507,.28977017E-3,.1989E-4,0
KUIPER-00078,2025-151K,2026-07-20T21:36:47.005056,14.79937406,.00008327,51.9012,66.5351,111.7624,248.3427,0,U,64825,999,5510,.28223587E-3,.1931E-4,0
KUIPER-00079,2025-151L,2026-07-20T22:17:37.430880,14.79939670,.00007571,51.8999,71.3700,105.6417,254.4629,0,U,64826,999,5623,.29936506E-3,.2062E-4,0
KUIPER-00080,2025-151M,2026-07-20T19:51:48.473568,14.79974629,.00007263,51.9008,71.8277,318.5359,41.5548,0,U,64827,999,5502,.12585576E-2,.9396E-4,0
KUIPER-00082,2025-151N,2026-07-20T19:22:34.043808,14.79936146,.00008675,51.9024,59.4716,109.5555,250.5501,0,U,64828,999,5519,.25210594E-3,.1701E-4,0
KUIPER-00083,2025-151P,2026-07-20T22:25:23.559744,14.79931240,.00006793,51.9021,66.3950,107.5819,252.5217,0,U,64829,999,5629,.11297952E-3,.64E-5,0
KUIPER-00084,2025-151Q,2026-07-20T22:09:50.406912,14.79928220,.00004992,51.9029,76.4267,106.3708,253.7310,0,U,64830,999,5496,.18442831E-3,.1185E-4,0
KUIPER-00085,2025-151R,2026-07-20T21:48:26.984160,14.79935539,.00007604,51.9041,59.0714,112.8949,247.2094,0,U,64831,999,5520,.27934585E-3,.1909E-4,0
